# From MPEC 2021-N06
337P/WISE,e,15.3709,106.0620,161.0253,3.286044,0.1654604,0.49663136,342.2712,03/16.0/2022,2000,g 17.0,4.0
# From MPC104796
338P/McNaught,e,25.3851,9.7968,4.4371,3.895574,0.1281879,0.41186840,248.3711,03/16.0/2022,2000,g 12.0,4.0
# From MPC101101
339P/Gibbs,e,5.7333,172.7251,27.4902,3.698100,0.1385913,0.63547283,286.1252,03/16.0/2022,2000,g 17.0,4.0
# From MPC133426
340P/Boattini,e,2.0785,291.6974,35.9344,4.250678,0.1124648,0.28081395,218.1885,03/16.0/2022,2000,g 14.3,4.0
# From MPEC 2021-BE3
341P/Gibbs,e,3.7967,29.9700,312.2134,4.292087,0.1108412,0.41569462,234.4234,03/16.0/2022,2000,g 12.5,4.0
# From MPC101101
342P/SOHO,e,11.6659,27.7017,73.2707,3.042232,0.1857443,0.98276266,0.0000,10/19.2987/2021,2000,g  9.0,4.0
# From MPC109148
343P/NEAT-LONEOS,e,5.5872,257.1599,137.4165,5.458934,0.0772756,0.58474811,144.6170,03/16.0/2022,2000,g 14.0,4.0
# From MPC109148
344P/Read,e,3.4925,273.1468,140.3944,4.863360,0.0918966,0.42258451,180.1240,03/16.0/2022,2000,g 13.0,4.0
# From MPC109148
345P/LINEAR,e,2.7274,154.5119,196.4939,4.036826,0.1215190,0.22135892,250.9024,03/16.0/2022,2000,g 12.0,4.0
# From MPC110086
346P/Catalina,e,22.1931,102.4585,335.9556,4.474537,0.1041314,0.50275665,193.3314,03/16.0/2022,2000,g 14.0,4.0
# From MPC108599
347P/PANSTARRS,e,11.7525,261.0214,98.3931,3.604889,0.1440012,0.38601501,289.2904,03/16.0/2022,2000,g 15.0,4.0
# From MPEC 2022-ED3
348P/PANSTARRS,e,17.7401,312.9417,135.6626,3.150506,0.1762518,0.30682022,5.5480,03/16.0/2022,2000,g 14.0,4.0
# From MPC112394
349P/Lemmon,e,5.4908,331.7467,255.9853,3.574651,0.1458322,0.29860008,242.8063,03/16.0/2022,2000,g 14.0,4.0
# From MPC111775
350P/McNaught,e,7.3608,65.3043,139.7940,4.087447,0.1192685,0.09247115,185.3429,03/16.0/2022,2000,g 14.0,4.0
# From MPC105244
351P/Wiegert-PANSTARRS,e,12.7833,283.4403,352.6819,4.438384,0.1054064,0.29547684,243.3921,03/16.0/2022,2000,g 12.5,4.0
# From MPC110086
352P/Skiff,e,21.0110,28.0271,309.2755,6.641464,0.0575849,0.61814229,99.4565,03/16.0/2022,2000,g 11.5,4.0
# From MPEC 2020-AA5
353P/McNaught,e,28.4184,121.5499,230.4217,4.170955,0.1157047,0.47033204,178.6853,03/16.0/2022,2000,g 14.5,4.0
# From MPC105545
354P/LINEAR,e,5.2555,320.1290,132.8745,2.289479,0.2845110,0.12563696,195.7752,03/16.0/2022,2000,g 15.5,4.0
# From MPEC 2020-AA5
355P/LINEAR-NEAT,e,11.0438,51.4296,336.2752,3.470738,0.1524303,0.50759462,246.0434,03/16.0/2022,2000,g 15.5,2.0
# From MPEC 2021-F20
356P/WISE,e,9.6381,160.7980,225.9993,4.158311,0.1162328,0.35549590,179.9957,03/16.0/2022,2000,g 14.0,4.0
# From MPC114609
357P/Hill,e,6.3140,44.5607,1.3883,4.459185,0.1046697,0.43529287,145.1055,03/16.0/2022,2000,g 15.5,4.0
# From MPEC 2020-HN5
358P/PANSTARRS,e,11.0596,85.7025,299.7591,3.146837,0.1765602,0.23876716,253.1393,03/16.0/2022,2000,g 18.0,4.0
# From MPC110086
359P/LONEOS,e,10.2673,149.7556,200.2105,4.639885,0.0986151,0.32420278,164.3400,03/16.0/2022,2000,g 13.5,4.0
# From MPC108599
360P/WISE,e,24.1108,2.1913,354.1575,3.701236,0.1384153,0.49917510,230.9293,03/16.0/2022,2000,g 19.5,6.0
# From MPC114609
361P/Spacewatch,e,13.8985,203.2524,219.0155,4.936941,0.0898498,0.43851370,121.5043,03/16.0/2022,2000,g 12.0,4.0
# From MPEC 2017-V13
362P/,e,15.5563,192.5526,53.6713,3.970381,0.1245821,0.27902427,253.1513,03/16.0/2022,2000,g 12.9,2.0
# From MPC114609
363P/Lemmon,e,5.4111,146.8841,341.1265,3.560854,0.1466807,0.52164599,217.3334,03/16.0/2022,2000,g 17.5,4.0
# From MPEC 2021-F20
364P/PANSTARRS,e,12.1360,46.1692,212.0169,2.879733,0.2016860,0.72193957,274.4898,03/16.0/2022,2000,g 17.0,2.0
# From MPC111775
365P/PANSTARRS,e,9.8216,86.7205,67.0303,3.167915,0.1748009,0.58032323,259.9367,03/16.0/2022,2000,g 17.0,4.0
# From MPC114610
366P/Spacewatch,e,8.8578,70.7623,153.0957,3.496252,0.1507648,0.34807773,201.2934,03/16.0/2022,2000,g 15.0,4.0
# From MPC112395
367P/Catalina,e,8.4608,58.7218,172.8646,3.506609,0.1500973,0.27993563,204.8962,03/16.0/2022,2000,g 17.5,2.0
# From MPC114610
368P/NEAT,e,15.4808,257.9011,118.8421,5.528110,0.0758297,0.62664644,96.9027,03/16.0/2022,2000,g 14.0,4.0
# From MPC114610
369P/Hill,e,10.3192,47.2906,13.1590,4.382898,0.1074143,0.55488107,133.9892,03/16.0/2022,2000,g 15.0,4.0
# From MPEC 2021-F20
370P/NEAT,e,19.4141,55.0917,356.6846,6.434298,0.0603882,0.61497248,83.0291,03/16.0/2022,2000,g 13.0,4.0
# From MPC114610
371P/LINEAR-Skiff,e,17.3802,67.2716,308.5021,4.180851,0.1152941,0.47693167,144.9813,03/16.0/2022,2000,g 16.0,4.0
# From MPEC 2020-K19
372P/McNaught,e,9.5093,325.8174,27.4699,4.506293,0.1030327,0.15269818,127.7358,03/16.0/2022,2000,g 13.5,4.0
# From MPEC 2021-F20
373P/Rinner,e,13.7656,231.9519,221.0447,3.802250,0.1329362,0.39244294,142.5415,03/16.0/2022,2000,g 14.5,4.0
# From MPC114610
374P/Larson,e,10.7662,7.9137,51.4570,4.972464,0.0888887,0.46291455,103.1027,03/16.0/2022,2000,g 14.0,4.0
# From MPEC 2021-F20
375P/Hill,e,17.3614,359.9503,119.4094,5.553042,0.0753195,0.65861642,88.9669,03/16.0/2022,2000,g 16.0,4.0
# From MPEC 2021-S45
376P/LONEOS,e,1.1829,314.4485,284.5612,5.798603,0.0705861,0.51683431,63.7411,03/16.0/2022,2000,g 12.5,4.0
# From MPEC 2021-N06
377P/Scotti,e,9.0238,226.0633,355.0582,6.707666,0.0567345,0.25190095,34.7178,03/16.0/2022,2000,g  9.5,4.0
# From MPEC 2021-Y10
378P/McNaught,e,19.0452,94.2426,193.7578,6.352596,0.0615570,0.46880554,31.6409,03/16.0/2022,2000,g 12.0,4.0
# From MPC115889
379P/Spacewatch,e,12.4437,183.8258,30.7185,3.514705,0.1495790,0.34162192,143.2259,03/16.0/2022,2000,g 15.0,4.0
# From MPEC 2020-KB7
380P/PANSTARRS,e,8.2418,132.7513,86.9370,4.464903,0.1044687,0.33719848,106.6884,03/16.0/2022,2000,g 12.5,4.0
# From MPEC 2021-J28
381P/LINEAR-Spacewatch,e,28.3781,173.7605,173.2279,7.130271,0.0517661,0.68191835,46.6329,03/16.0/2022,2000,g 17.5,2.0
# From MPEC 2022-A21
382P/Larson,e,8.3324,173.7226,170.7600,6.463703,0.0599766,0.31624999,1.7154,03/16.0/2022,2000,g  8.0,4.0
# From MPC118844
383P/Christensen,e,12.3231,207.8425,133.7328,3.546184,0.1475918,0.59957450,128.6349,03/16.0/2022,2000,g 18.0,4.0
# From MPEC 2021-S45
384P/Kowalski,e,7.2845,354.2305,37.6180,2.900590,0.1995146,0.61589247,176.8077,03/16.0/2022,2000,g 19.5,4.0
# From MPEC 2021-F20
385P/Hill,e,16.8320,357.0606,44.3257,4.288498,0.1109804,0.40175438,101.3106,03/16.0/2022,2000,g 13.0,4.0
# From MPEC 2021-L04
386P/PANSTARRS,e,15.2298,134.9444,353.1719,4.054827,0.1207106,0.41622966,69.2734,03/16.0/2022,2000,g 14.5,4.0
# From MPEC 2021-J28
387P/Boattini,e,8.9231,259.2879,162.7763,4.797533,0.0937945,0.73639044,86.4362,03/16.0/2022,2000,g 15.0,4.0
# From MPEC 2021-S45
388P/Gibbs,e,23.8784,37.0423,42.3248,5.242402,0.0821124,0.61826780,79.3431,03/16.0/2022,2000,g 13.0,4.0
# From MPEC 2021-J28
389P/Siding Spring,e,160.0770,218.8624,249.3547,5.630544,0.0737698,0.70431405,59.5861,03/16.0/2022,2000,g 16.0,4.0
# From MPEC 2021-S45
390P/Gibbs,e,18.5617,152.2746,232.3646,5.806676,0.0704389,0.70731302,50.9670,03/16.0/2022,2000,g 12.0,4.0
# From MPEC 2021-F20
391P/Kowalski,e,21.2733,124.7355,187.1911,4.681487,0.0973035,0.12031506,141.5507,03/16.0/2022,2000,g  8.0,4.0
# From MPEC 2021-J28
392P/LINEAR,e,4.9314,24.8835,71.9182,6.142762,0.0647379,0.68288249,46.2347,03/16.0/2022,2000,g 14.5,4.0
# From MPEC 2021-BE3
393P/Spacewatch-Hill,e,16.7884,36.4053,328.5096,4.789438,0.0940323,0.12068197,81.8270,03/16.0/2022,2000,g 11.0,4.0
# From MPEC 2020-KB7
394P/PANSTARRS,e,8.5293,98.1252,54.5074,4.331347,0.1093376,0.36756482,91.5142,03/16.0/2022,2000,g 16.0,2.4
# From MPEC 2021-Y10
395P/Catalina-NEAT,e,3.2767,223.5663,89.9462,6.575844,0.0584490,0.38184739,4.4148,03/16.0/2022,2000,g 10.0,4.0
# From MPEC 2020-KB7
396P/,e,5.4364,136.6614,8.5108,6.812092,0.0554349,0.41572058,51.6114,03/16.0/2022,2000,g 12.0,4.0
# From MPEC 2021-O56
397P/Lemmon,e,10.9293,8.1965,14.4778,3.828873,0.1315520,0.40522143,83.4628,03/16.0/2022,2000,g 12.0,4.0
# From MPEC 2021-L04
398P/Boattini,e,11.0154,127.4566,320.2128,3.127503,0.1781999,0.58273052,79.1638,03/16.0/2022,2000,g 15.5,4.0
# From MPEC 2022-ED3
399P/PANSTARRS,e,13.3192,207.1386,214.3241,3.790872,0.1335351,0.44706362,39.7069,03/16.0/2022,2000,g 14.0,4.0
# From MPEC 2022-ED3
400P/PANSTARRS,e,10.9297,176.3918,238.8108,3.561000,0.1466716,0.40934333,58.4955,03/16.0/2022,2000,g 15.5,2.8
# From MPEC 2021-R75
401P/McNaught,e,12.8026,359.8793,309.3827,5.774680,0.0710251,0.57991441,58.9468,03/16.0/2022,2000,g 12.5,4.0
# From MPEC 2022-ED3
402P/LINEAR,e,30.8504,123.0925,326.7328,7.017256,0.0530216,0.43882935,4.8482,03/16.0/2022,2000,g  8.0,4.0
# From MPEC 2021-J28
403P/Catalina,e,12.3217,163.8125,277.6504,5.428028,0.0779365,0.50360502,42.5240,03/16.0/2022,2000,g 12.0,4.0
# From MPEC 2021-WD8
404P/Bressi,e,9.7172,260.7711,166.2201,4.788475,0.0940607,0.13505228,305.6507,03/16.0/2022,2000,g 10.0,4.0
# From MPEC 2021-L04
405P/Lemmon,e,9.3655,3.3151,112.2172,3.607535,0.1438428,0.68912673,64.2561,03/16.0/2022,2000,g 17.5,4.0
# From MPEC 2021-F20
406P/Gibbs,e,1.2135,11.4753,352.4051,3.575635,0.1457720,0.54206274,79.6197,03/16.0/2022,2000,g 17.0,4.0
# From MPEC 2021-F20
407P/PANSTARRS-Fuls,e,4.8808,80.6570,93.1005,3.467919,0.1526162,0.38313390,118.1091,03/16.0/2022,2000,g 14.0,4.0
# From MPEC 2022-D36
408P/Novichonok-Gerke,e,19.3541,189.4376,226.3724,4.748980,0.0952365,0.26977930,340.7136,03/16.0/2022,2000,g 11.0,4.0
# From MPEC 2022-ED3
409P/LONEOS-Hill,e,17.1190,143.6702,15.1224,6.043846,0.0663337,0.70978257,27.3222,03/16.0/2022,2000,g 14.0,4.0
# From MPEC 2022-ED3
410P/NEAT-LINEAR,e,9.3935,139.9805,313.0938,6.636822,0.0576453,0.51077191,15.3005,03/16.0/2022,2000,g 12.5,4.0
# From MPEC 2021-J28
411P/Christensen,e,12.3787,77.6623,46.6481,5.816057,0.0702686,0.58079266,29.2076,03/16.0/2022,2000,g 13.5,4.0
# From MPEC 2021-F20
412P/WISE,e,8.9313,0.8452,155.9361,3.109669,0.1797350,0.47959892,83.7026,03/16.0/2022,2000,g 17.0,4.0
# From MPEC 2021-O56
413P/Larson,e,15.9780,39.0209,186.0734,3.710775,0.1378819,0.42326573,32.9151,03/16.0/2022,2000,g 14.0,4.0
# From MPEC 2021-BE3
414P/STEREO,e,23.3850,257.7895,210.7232,2.794026,0.2110369,0.81161873,87.5064,03/16.0/2022,2000,g 19.0,4.0
# From MPEC 2022-CN4
